{
  "norad_id": 66639,
  "name": "STARLINK-35908",
  "history": [
    {
      "epoch": "2026-03-28T21:06:06.265152Z",
      "apogee_km": 476.4104012353955,
      "perigee_km": 473.88249910196555,
      "latitude_deg": 3.587545115326989e-05,
      "longitude_deg": -91.94823167161557,
      "height_km": 475.5024809508543,
      "semi_major_axis_km": 6853.28345016868,
      "eccentricity": 0.00018443,
      "inclination_deg": 53.1612,
      "raan_deg": 50.8712,
      "arg_perigee_deg": 64.6261,
      "mean_anomaly_deg": 295.4931,
      "mean_motion_rev_day": 15.30222982
    },
    {
      "epoch": "2026-03-29T03:22:19.095456Z",
      "apogee_km": 476.2023471406028,
      "perigee_km": 474.1120924035731,
      "latitude_deg": -5.522259023360184e-05,
      "longitude_deg": 172.52623166208392,
      "height_km": 476.30042819987693,
      "semi_major_axis_km": 6853.294219772088,
      "eccentricity": 0.0001525,
      "inclination_deg": 53.1615,
      "raan_deg": 49.6567,
      "arg_perigee_deg": 103.5719,
      "mean_anomaly_deg": 256.5451,
      "mean_motion_rev_day": 15.30219375
    },
    {
      "epoch": "2026-03-30T04:27:10.266336Z",
      "apogee_km": 476.0347988931708,
      "perigee_km": 474.44769355891094,
      "latitude_deg": 5.146532193670611e-05,
      "longitude_deg": 150.43126462322257,
      "height_km": 475.94621018224024,
      "semi_major_axis_km": 6853.378246226041,
      "eccentricity": 0.00011579,
      "inclination_deg": 53.1607,
      "raan_deg": 44.8049,
      "arg_perigee_deg": 75.8957,
      "mean_anomaly_deg": 284.2173,
      "mean_motion_rev_day": 15.30191233
    },
    {
      "epoch": "2026-03-31T19:38:30.382944Z",
      "apogee_km": 476.35348675341174,
      "perigee_km": 474.04254218653296,
      "latitude_deg": 4.684355019985537e-05,
      "longitude_deg": -86.59558773611134,
      "height_km": 476.47290826561573,
      "semi_major_axis_km": 6853.335014469972,
      "eccentricity": 0.0001686,
      "inclination_deg": 53.1591,
      "raan_deg": 37.2213,
      "arg_perigee_deg": 109.0626,
      "mean_anomaly_deg": 251.0558,
      "mean_motion_rev_day": 15.30205712
    },
    {
      "epoch": "2026-04-01T12:53:05.376192Z",
      "apogee_km": 476.0063323818531,
      "perigee_km": 474.3176795067893,
      "latitude_deg": -9.561794162158046e-06,
      "longitude_deg": 10.708918903463214,
      "height_km": 476.195115113859,
      "semi_major_axis_km": 6853.299005944321,
      "eccentricity": 0.0001232,
      "inclination_deg": 53.1596,
      "raan_deg": 33.8798,
      "arg_perigee_deg": 99.2004,
      "mean_anomaly_deg": 260.9136,
      "mean_motion_rev_day": 15.30217772
    },
    {
      "epoch": "2026-04-02T20:14:08.663712Z",
      "apogee_km": 477.02265245288254,
      "perigee_km": 472.98204149390585,
      "latitude_deg": 2.3118756104117635e-05,
      "longitude_deg": -106.908789842954,
      "height_km": 475.6898362084984,
      "semi_major_axis_km": 6853.139346973394,
      "eccentricity": 0.0002948,
      "inclination_deg": 53.1602,
      "raan_deg": 27.8133,
      "arg_perigee_deg": 84.0859,
      "mean_anomaly_deg": 276.0478,
      "mean_motion_rev_day": 15.30271247
    },
    {
      "epoch": "2026-04-02T20:14:08.664576Z",
      "apogee_km": 477.0224468587012,
      "perigee_km": 472.9822470880872,
      "latitude_deg": 2.587189210099505e-05,
      "longitude_deg": -106.90879140162522,
      "height_km": 475.68985739210564,
      "semi_major_axis_km": 6853.139346973394,
      "eccentricity": 0.00029477,
      "inclination_deg": 53.1602,
      "raan_deg": 27.8133,
      "arg_perigee_deg": 84.0859,
      "mean_anomaly_deg": 276.0478,
      "mean_motion_rev_day": 15.30271247
    },
    {
      "epoch": "2026-04-03T19:44:57.633792Z",
      "apogee_km": 476.78750532522827,
      "perigee_km": 473.6870388045463,
      "latitude_deg": 6.430576029156463e-06,
      "longitude_deg": -105.1308135819523,
      "height_km": 476.3287581516059,
      "semi_major_axis_km": 6853.374272064887,
      "eccentricity": 0.0002262,
      "inclination_deg": 53.1599,
      "raan_deg": 23.261,
      "arg_perigee_deg": 97.2199,
      "mean_anomaly_deg": 262.9059,
      "mean_motion_rev_day": 15.30192564
    },
    {
      "epoch": "2026-04-04T19:15:45.142848Z",
      "apogee_km": 476.06790371574425,
      "perigee_km": 474.150365447289,
      "latitude_deg": -6.29691817816184e-06,
      "longitude_deg": -103.34463092678985,
      "height_km": 475.6450412453191,
      "semi_major_axis_km": 6853.246134581516,
      "eccentricity": 0.0001399,
      "inclination_deg": 53.1601,
      "raan_deg": 18.7108,
      "arg_perigee_deg": 67.8062,
      "mean_anomaly_deg": 292.3087,
      "mean_motion_rev_day": 15.3023548
    },
    {
      "epoch": "2026-04-04T19:15:45.143712Z",
      "apogee_km": 476.0680407806676,
      "perigee_km": 474.15022838236655,
      "latitude_deg": -8.004701458171994e-06,
      "longitude_deg": -103.34463580901047,
      "height_km": 475.6449894712031,
      "semi_major_axis_km": 6853.246134581516,
      "eccentricity": 0.00013992,
      "inclination_deg": 53.1601,
      "raan_deg": 18.7108,
      "arg_perigee_deg": 67.8062,
      "mean_anomaly_deg": 292.3087,
      "mean_motion_rev_day": 15.3023548
    },
    {
      "epoch": "2026-04-07T17:48:09.334080Z",
      "apogee_km": 476.08092860130273,
      "perigee_km": 474.30591602192453,
      "latitude_deg": 7.0895953528011804e-06,
      "longitude_deg": -97.99240143061674,
      "height_km": 476.04362017998903,
      "semi_major_axis_km": 6853.330422311614,
      "eccentricity": 0.0001295,
      "inclination_deg": 53.1617,
      "raan_deg": 5.0608,
      "arg_perigee_deg": 86.8977,
      "mean_anomaly_deg": 273.2172,
      "mean_motion_rev_day": 15.3020725
    },
    {
      "epoch": "2026-04-08T11:02:44.437920Z",
      "apogee_km": 475.87518535792697,
      "perigee_km": 474.50301240640874,
      "latitude_deg": -3.4839016257731635e-05,
      "longitude_deg": -0.6844491591531167,
      "height_km": 476.07336825131574,
      "semi_major_axis_km": 6853.326098882168,
      "eccentricity": 0.00010011,
      "inclination_deg": 53.1615,
      "raan_deg": 1.7232,
      "arg_perigee_deg": 88.8024,
      "mean_anomaly_deg": 271.3091,
      "mean_motion_rev_day": 15.30208698
    }
  ]
}